[{"OBJECT_NAME":"STARLINK-1621","OBJECT_ID":"2020-057L","EPOCH":"2026-03-10T00:00:02.999808","MEAN_MOTION":15.77360389,"ECCENTRICITY":0.00049397,"INCLINATION":53.0446,"RA_OF_ASC_NODE":242.112,"ARG_OF_PERICENTER":242.853,"MEAN_ANOMALY":149.5144,"EPHEMERIS_TYPE":0,"CLASSIFICATION_TYPE":"U","NORAD_CAT_ID":46127,"ELEMENT_SET_NO":999,"REV_AT_EPOCH":581,"BSTAR":0.00093063466,"MEAN_MOTION_DOT":0.00159043,"MEAN_MOTION_DDOT":0},{"OBJECT_NAME":"STARLINK-36880","OBJECT_ID":"2026-038R","EPOCH":"2026-03-09T22:00:01.999584","MEAN_MOTION":15.88829498,"ECCENTRICITY":0.00012589,"INCLINATION":97.2703,"RA_OF_ASC_NODE":79.2304,"ARG_OF_PERICENTER":85.7125,"MEAN_ANOMALY":227.5267,"EPHEMERIS_TYPE":0,"CLASSIFICATION_TYPE":"U","NORAD_CAT_ID":67976,"ELEMENT_SET_NO":999,"REV_AT_EPOCH":323,"BSTAR":-0.0061113448,"MEAN_MOTION_DOT":-0.01487936,"MEAN_MOTION_DDOT":0}]
